IDEFIX & ARIANE 42P R/B 
1 27422U 02021B   25355.74320933  .00000230  00000+0  10407-3 0  9992
2 27422  98.5799 290.3176 0012836  59.3856 300.8591 14.30956237232878
AQUA                    
1 27424U 02022A   25355.93289618  .00000871  00000+0  18434-3 0  9999
2 27424  98.4050 316.9619 0001439 110.3776 326.1362 14.61820667257372
CZ-4B R/B               
1 27432U 02024C   25356.12265263  .00000060  00000+0  54143-4 0  9990
2 27432  98.8985  44.8612 0049296 242.7563 171.6272 14.14529741218275
MIDORI II (ADEOS-II)    
1 27597U 02056A   25355.74650844  .00000196  00000+0  94984-4 0  9994
2 27597  98.7651 308.7506 0000650 149.6129 210.5090 14.29211121199167
H-2A R/B                
1 27601U 02056E   25355.89289257  .00000352  00000+0  13772-3 0  9991
2 27601  98.3079 314.2856 0071070  34.2339  26.0480 14.33683744202964
CZ-4B R/B               
1 28059U 03049C   25355.94873451  .00000389  00000+0  10083-3 0  9995
2 28059  98.6793 342.8607 0049336 108.4940 252.1626 14.54917864175296
CZ-2C R/B               
1 28222U 04012C   25356.12949198  .00042474  00000+0  60251-3 0  9994
2 28222  97.7403  49.5304 0016526 233.7201 126.2527 15.56173419192189
SL-16 R/B               
1 28353U 04021B   25356.16784449  .00000016  00000+0  32902-4 0  9998
2 28353  71.0005  35.1802 0004782 184.3737 175.7344 14.14578866111878
CZ-4B R/B               
1 28415U 04035C   25355.66743154  .00006469  00000+0  23975-3 0  9991
2 28415  97.3592  25.8926 0031612 244.2023 115.5954 15.27504209167996
CZ-2C R/B               
1 28480U 04046B   25355.72387919  .00000192  00000+0  86456-4 0  9996
2 28480  98.1996 270.5435 0140071  25.8875 334.9228 14.26945418 97382
ARIANE 5 R/B            
1 28499U 04049H   25356.01838037  .00001139  00000+0  13266-3 0  9994
2 28499  98.2527 156.6327 0083392 242.4474 116.8249 14.85034331134268
CZ-2D R/B               
1 28738U 05024B   25355.99773507  .00032998  00000+0  51628-3 0  9991
2 28738  97.3622   3.6905 0003991 331.3795  28.7239 15.53688567127695
